{
  "type": "FeatureCollection",
  "features": [
    {
      "type": "Feature",
      "properties": {
        "norad_id": 33972,
        "name": "COSMOS 2251 DEB",
        "group": "cosmos-2251-debris",
        "lat": 0.6111538178290852,
        "lon": 3.115097088967106,
        "alt_km": 860.5565579378508,
        "timestamp": "2025-12-16T17:51:11.325485+00:00",
        "meta_object_name": "COSMOS 2251 DEB",
        "meta_object_id": "1993-036FF",
        "meta_epoch": "2025-12-15T19:21:07.388064",
        "meta_mean_motion": 14.36246564,
        "meta_eccentricity": 0.01234326,
        "meta_inclination": 73.994,
        "meta_ra_of_asc_node": 185.0166,
        "meta_arg_of_pericenter": 352.1034,
        "meta_mean_anomaly": 21.7399,
        "meta_ephemeris_type": 0,
        "meta_classification_type": "U",
        "meta_norad_cat_id": 33972,
        "meta_element_set_no": 999,
        "meta_rev_at_epoch": 87118,
        "meta_bstar": 0.00083641684,
        "meta_mean_motion_dot": 2.637e-05,
        "meta_mean_motion_ddot": 0,
        "tle_line1": "1 33972U 93036FF  25349.80633551  .00002637  00000+0  83642-3 0  9992",
        "tle_line2": "2 33972  73.9940 185.0166 0123432 352.1034  21.7399 14.36246564871185"
      },
      "geometry": {
        "type": "Point",
        "coordinates": [
          3.115097088967106,
          0.6111538178290852
        ]
      }
    },
    {
      "type": "Feature",
      "properties": {
        "norad_id": 33973,
        "name": "COSMOS 2251 DEB",
        "group": "cosmos-2251-debris",
        "lat": 58.29005813550865,
        "lon": 123.07217924118527,
        "alt_km": 763.6882087156282,
        "timestamp": "2025-12-16T17:51:11.325496+00:00",
        "meta_object_name": "COSMOS 2251 DEB",
        "meta_object_id": "1993-036FG",
        "meta_epoch": "2025-12-15T19:05:09.907584",
        "meta_mean_motion": 14.4539414,
        "meta_eccentricity": 0.00473654,
        "meta_inclination": 74.0085,
        "meta_ra_of_asc_node": 97.1879,
        "meta_arg_of_pericenter": 275.057,
        "meta_mean_anomaly": 252.8567,
        "meta_ephemeris_type": 0,
        "meta_classification_type": "U",
        "meta_norad_cat_id": 33973,
        "meta_element_set_no": 999,
        "meta_rev_at_epoch": 88644,
        "meta_bstar": 0.00014315024,
        "meta_mean_motion_dot": 4.82e-06,
        "meta_mean_motion_ddot": 0,
        "tle_line1": "1 33973U 93036FG  25349.79525356  .00000482  00000+0  14315-3 0  9991",
        "tle_line2": "2 33973  74.0085  97.1879 0047365 275.0570 252.8567 14.45394140886443"
      },
      "geometry": {
        "type": "Point",
        "coordinates": [
          123.07217924118527,
          58.29005813550865
        ]
      }
    },
    {
      "type": "Feature",
      "properties": {
        "norad_id": 33975,
        "name": "COSMOS 2251 DEB",
        "group": "cosmos-2251-debris",
        "lat": 68.45206358950107,
        "lon": 124.81563796726283,
        "alt_km": 980.2184036981371,
        "timestamp": "2025-12-16T17:51:11.325506+00:00",
        "meta_object_name": "COSMOS 2251 DEB",
        "meta_object_id": "1993-036FJ",
        "meta_epoch": "2025-12-15T22:37:23.928384",
        "meta_mean_motion": 14.00531552,
        "meta_eccentricity": 0.01912239,
        "meta_inclination": 73.802,
        "meta_ra_of_asc_node": 78.8229,
        "meta_arg_of_pericenter": 211.229,
        "meta_mean_anomaly": 147.7371,
        "meta_ephemeris_type": 0,
        "meta_classification_type": "U",
        "meta_norad_cat_id": 33975,
        "meta_element_set_no": 999,
        "meta_rev_at_epoch": 85874,
        "meta_bstar": 0.00056526876,
        "meta_mean_motion_dot": 9.58e-06,
        "meta_mean_motion_ddot": 0,
        "tle_line1": "1 33975U 93036FJ  25349.94263806  .00000958  00000+0  56527-3 0  9998",
        "tle_line2": "2 33975  73.8020  78.8229 0191223 211.2290 147.7371 14.00531552858748"
      },
      "geometry": {
        "type": "Point",
        "coordinates": [
          124.81563796726283,
          68.45206358950107
        ]
      }
    },
    {
      "type": "Feature",
      "properties": {
        "norad_id": 33980,
        "name": "COSMOS 2251 DEB",
        "group": "cosmos-2251-debris",
        "lat": 28.96415447843095,
        "lon": 60.88993668009672,
        "alt_km": 715.2967876844168,
        "timestamp": "2025-12-16T17:51:11.325517+00:00",
        "meta_object_name": "COSMOS 2251 DEB",
        "meta_object_id": "1993-036FP",
        "meta_epoch": "2025-12-15T22:46:55.919712",
        "meta_mean_motion": 14.58672433,
        "meta_eccentricity": 0.00284993,
        "meta_inclination": 74.0221,
        "meta_ra_of_asc_node": 53.2789,
        "meta_arg_of_pericenter": 197.9624,
        "meta_mean_anomaly": 341.4284,
        "meta_ephemeris_type": 0,
        "meta_classification_type": "U",
        "meta_norad_cat_id": 33980,
        "meta_element_set_no": 999,
        "meta_rev_at_epoch": 88841,
        "meta_bstar": 0.00045335063,
        "meta_mean_motion_dot": 2.096e-05,
        "meta_mean_motion_ddot": 0,
        "tle_line1": "1 33980U 93036FP  25349.94925833  .00002096  00000+0  45335-3 0  9999",
        "tle_line2": "2 33980  74.0221  53.2789 0028499 197.9624 341.4284 14.58672433888413"
      },
      "geometry": {
        "type": "Point",
        "coordinates": [
          60.88993668009672,
          28.96415447843095
        ]
      }
    },
    {
      "type": "Feature",
      "properties": {
        "norad_id": 33982,
        "name": "COSMOS 2251 DEB",
        "group": "cosmos-2251-debris",
        "lat": -73.74844426429553,
        "lon": -109.24378945978486,
        "alt_km": 732.518232714473,
        "timestamp": "2025-12-16T17:51:11.325527+00:00",
        "meta_object_name": "COSMOS 2251 DEB",
        "meta_object_id": "1993-036FR",
        "meta_epoch": "2025-12-15T09:54:14.249088",
        "meta_mean_motion": 14.60222839,
        "meta_eccentricity": 0.00751478,
        "meta_inclination": 74.0708,
        "meta_ra_of_asc_node": 354.8438,
        "meta_arg_of_pericenter": 38.5509,
        "meta_mean_anomaly": 73.8354,
        "meta_ephemeris_type": 0,
        "meta_classification_type": "U",
        "meta_norad_cat_id": 33982,
        "meta_element_set_no": 999,
        "meta_rev_at_epoch": 89198,
        "meta_bstar": 0.00036230132,
        "meta_mean_motion_dot": 1.787e-05,
        "meta_mean_motion_ddot": 0,
        "tle_line1": "1 33982U 93036FR  25349.41266492  .00001787  00000+0  36230-3 0  9992",
        "tle_line2": "2 33982  74.0708 354.8438 0075147  38.5509  73.8354 14.60222839891984"
      },
      "geometry": {
        "type": "Point",
        "coordinates": [
          -109.24378945978486,
          -73.74844426429553
        ]
      }
    },
    {
      "type": "Feature",
      "properties": {
        "norad_id": 33983,
        "name": "COSMOS 2251 DEB",
        "group": "cosmos-2251-debris",
        "lat": 58.04053451978221,
        "lon": 166.8108002391887,
        "alt_km": 732.5677311987038,
        "timestamp": "2025-12-16T17:51:11.325537+00:00",
        "meta_object_name": "COSMOS 2251 DEB",
        "meta_object_id": "1993-036FS",
        "meta_epoch": "2025-12-15T20:44:40.926048",
        "meta_mean_motion": 14.50684387,
        "meta_eccentricity": 0.00212737,
        "meta_inclination": 74.0492,
        "meta_ra_of_asc_node": 141.1768,
        "meta_arg_of_pericenter": 243.8419,
        "meta_mean_anomaly": 266.762,
        "meta_ephemeris_type": 0,
        "meta_classification_type": "U",
        "meta_norad_cat_id": 33983,
        "meta_element_set_no": 999,
        "meta_rev_at_epoch": 88674,
        "meta_bstar": 0.00043549642,
        "meta_mean_motion_dot": 1.688e-05,
        "meta_mean_motion_ddot": 0,
        "tle_line1": "1 33983U 93036FS  25349.86436257  .00001688  00000+0  43550-3 0  9993",
        "tle_line2": "2 33983  74.0492 141.1768 0021273 243.8419 266.7620 14.50684387886746"
      },
      "geometry": {
        "type": "Point",
        "coordinates": [
          166.8108002391887,
          58.04053451978221
        ]
      }
    },
    {
      "type": "Feature",
      "properties": {
        "norad_id": 33984,
        "name": "COSMOS 2251 DEB",
        "group": "cosmos-2251-debris",
        "lat": 32.27283727852218,
        "lon": -10.195753870387051,
        "alt_km": 683.1845571131635,
        "timestamp": "2025-12-16T17:51:11.325548+00:00",
        "meta_object_name": "COSMOS 2251 DEB",
        "meta_object_id": "1993-036FT",
        "meta_epoch": "2025-12-15T17:58:16.421088",
        "meta_mean_motion": 14.6639153,
        "meta_eccentricity": 0.00229328,
        "meta_inclination": 74.0091,
        "meta_ra_of_asc_node": 341.2913,
        "meta_arg_of_pericenter": 178.5851,
        "meta_mean_anomaly": 4.5304,
        "meta_ephemeris_type": 0,
        "meta_classification_type": "U",
        "meta_norad_cat_id": 33984,
        "meta_element_set_no": 999,
        "meta_rev_at_epoch": 89110,
        "meta_bstar": 0.00056029013,
        "meta_mean_motion_dot": 3.079e-05,
        "meta_mean_motion_ddot": 0,
        "tle_line1": "1 33984U 93036FT  25349.74880117  .00003079  00000+0  56029-3 0  9990",
        "tle_line2": "2 33984  74.0091 341.2913 0022932 178.5851   4.5304 14.66391530891109"
      },
      "geometry": {
        "type": "Point",
        "coordinates": [
          -10.195753870387051,
          32.27283727852218
        ]
      }
    }
  ]
}